<?xml version="1.0" encoding="UTF-8"?>
<ndm xmlns:xsi="http://www.w3.org/2001/XMLSchema-instance" xsi:noNamespaceSchemaLocation="https://sanaregistry.org/r/ndmxml_unqualified/ndmxml-2.0.0-master-2.0.xsd">
<omm id="CCSDS_OMM_VERS" version="2.0">
<header><CREATION_DATE/><ORIGINATOR/></header><body><segment><metadata><OBJECT_NAME>ORBCOMM FM115 [+]</OBJECT_NAME><OBJECT_ID>2015-081H</OBJECT_ID><CENTER_NAME>EARTH</CENTER_NAME><REF_FRAME>TEME</REF_FRAME><TIME_SYSTEM>UTC</TIME_SYSTEM><MEAN_ELEMENT_THEORY>SGP4</MEAN_ELEMENT_THEORY></metadata><data><meanElements><EPOCH>2023-10-28T10:34:45.811200</EPOCH><MEAN_MOTION>14.60038216</MEAN_MOTION><ECCENTRICITY>.0001388</ECCENTRICITY><INCLINATION>47.0007</INCLINATION><RA_OF_ASC_NODE>356.5966</RA_OF_ASC_NODE><ARG_OF_PERICENTER>242.3148</ARG_OF_PERICENTER><MEAN_ANOMALY>117.7598</MEAN_ANOMALY></meanElements><tleParameters><EPHEMERIS_TYPE>0</EPHEMERIS_TYPE><CLASSIFICATION_TYPE>U</CLASSIFICATION_TYPE><NORAD_CAT_ID>41186</NORAD_CAT_ID><ELEMENT_SET_NO>999</ELEMENT_SET_NO><REV_AT_EPOCH>42035</REV_AT_EPOCH><BSTAR>.25879E-3</BSTAR><MEAN_MOTION_DOT>.1083E-4</MEAN_MOTION_DOT><MEAN_MOTION_DDOT>0</MEAN_MOTION_DDOT></tleParameters></data></segment></body></omm>
<omm id="CCSDS_OMM_VERS" version="2.0">
<header><CREATION_DATE/><ORIGINATOR/></header><body><segment><metadata><OBJECT_NAME>ORBCOMM FM108 [+]</OBJECT_NAME><OBJECT_ID>2015-081J</OBJECT_ID><CENTER_NAME>EARTH</CENTER_NAME><REF_FRAME>TEME</REF_FRAME><TIME_SYSTEM>UTC</TIME_SYSTEM><MEAN_ELEMENT_THEORY>SGP4</MEAN_ELEMENT_THEORY></metadata><data><meanElements><EPOCH>2023-10-28T13:24:12.094848</EPOCH><MEAN_MOTION>14.55988504</MEAN_MOTION><ECCENTRICITY>.0001456</ECCENTRICITY><INCLINATION>47.0064</INCLINATION><RA_OF_ASC_NODE>44.2362</RA_OF_ASC_NODE><ARG_OF_PERICENTER>106.8038</ARG_OF_PERICENTER><MEAN_ANOMALY>253.3007</MEAN_ANOMALY></meanElements><tleParameters><EPHEMERIS_TYPE>0</EPHEMERIS_TYPE><CLASSIFICATION_TYPE>U</CLASSIFICATION_TYPE><NORAD_CAT_ID>41187</NORAD_CAT_ID><ELEMENT_SET_NO>999</ELEMENT_SET_NO><REV_AT_EPOCH>41972</REV_AT_EPOCH><BSTAR>.33186E-3</BSTAR><MEAN_MOTION_DOT>.1307E-4</MEAN_MOTION_DOT><MEAN_MOTION_DDOT>0</MEAN_MOTION_DDOT></tleParameters></data></segment></body></omm>
<omm id="CCSDS_OMM_VERS" version="2.0">
<header><CREATION_DATE/><ORIGINATOR/></header><body><segment><metadata><OBJECT_NAME>ORBCOMM FM117 [+]</OBJECT_NAME><OBJECT_ID>2015-081K</OBJECT_ID><CENTER_NAME>EARTH</CENTER_NAME><REF_FRAME>TEME</REF_FRAME><TIME_SYSTEM>UTC</TIME_SYSTEM><MEAN_ELEMENT_THEORY>SGP4</MEAN_ELEMENT_THEORY></metadata><data><meanElements><EPOCH>2023-10-28T14:13:49.400832</EPOCH><MEAN_MOTION>14.56000836</MEAN_MOTION><ECCENTRICITY>.0002305</ECCENTRICITY><INCLINATION>47.0020</INCLINATION><RA_OF_ASC_NODE>43.0344</RA_OF_ASC_NODE><ARG_OF_PERICENTER>122.4083</ARG_OF_PERICENTER><MEAN_ANOMALY>237.7025</MEAN_ANOMALY></meanElements><tleParameters><EPHEMERIS_TYPE>0</EPHEMERIS_TYPE><CLASSIFICATION_TYPE>U</CLASSIFICATION_TYPE><NORAD_CAT_ID>41188</NORAD_CAT_ID><ELEMENT_SET_NO>999</ELEMENT_SET_NO><REV_AT_EPOCH>41969</REV_AT_EPOCH><BSTAR>.34283E-3</BSTAR><MEAN_MOTION_DOT>.1356E-4</MEAN_MOTION_DOT><MEAN_MOTION_DDOT>0</MEAN_MOTION_DDOT></tleParameters></data></segment></body></omm>
<omm id="CCSDS_OMM_VERS" version="2.0">
<header><CREATION_DATE/><ORIGINATOR/></header><body><segment><metadata><OBJECT_NAME>ORBCOMM FM116 [+]</OBJECT_NAME><OBJECT_ID>2015-081L</OBJECT_ID><CENTER_NAME>EARTH</CENTER_NAME><REF_FRAME>TEME</REF_FRAME><TIME_SYSTEM>UTC</TIME_SYSTEM><MEAN_ELEMENT_THEORY>SGP4</MEAN_ELEMENT_THEORY></metadata><data><meanElements><EPOCH>2023-10-28T05:44:50.345376</EPOCH><MEAN_MOTION>14.55993316</MEAN_MOTION><ECCENTRICITY>.0002365</ECCENTRICITY><INCLINATION>47.0007</INCLINATION><RA_OF_ASC_NODE>134.5060</RA_OF_ASC_NODE><ARG_OF_PERICENTER>202.5842</ARG_OF_PERICENTER><MEAN_ANOMALY>157.4938</MEAN_ANOMALY></meanElements><tleParameters><EPHEMERIS_TYPE>0</EPHEMERIS_TYPE><CLASSIFICATION_TYPE>U</CLASSIFICATION_TYPE><NORAD_CAT_ID>41189</NORAD_CAT_ID><ELEMENT_SET_NO>999</ELEMENT_SET_NO><REV_AT_EPOCH>41845</REV_AT_EPOCH><BSTAR>.19484E-3</BSTAR><MEAN_MOTION_DOT>.698E-5</MEAN_MOTION_DOT><MEAN_MOTION_DDOT>0</MEAN_MOTION_DDOT></tleParameters></data></segment></body></omm>
</ndm>
