ORBCOMM FM115 [+]       
1 41186U 15081H   23301.44080800  .00001083  00000+0  25879-3 0  9993
2 41186  47.0007 356.5966 0001388 242.3148 117.7598 14.60038216420357
ORBCOMM FM108 [+]       
1 41187U 15081J   23301.55847332  .00001307  00000+0  33186-3 0  9996
2 41187  47.0064  44.2362 0001456 106.8038 253.3007 14.55988504419729
ORBCOMM FM117 [+]       
1 41188U 15081K   23301.59293288  .00001356  00000+0  34283-3 0  9999
2 41188  47.0020  43.0344 0002305 122.4083 237.7025 14.56000836419693
ORBCOMM FM116 [+]       
1 41189U 15081L   23301.23947159  .00000698  00000+0  19484-3 0  9998
2 41189  47.0007 134.5060 0002365 202.5842 157.4938 14.55993316418456
